#aV2016  5 30  0  0  0.00000000     288 DD+AD WGS84 FIT  NGA
## 1899  86400.00000000   300.00000000 57538 0.0000000000000
+   31     1  2  3  5  6  7  8  9 10 11 12 13 14 15 16 17 18
+         19 20 21 22 23 24 25 26 27 28 29 30 31 32  0  0  0
+          0  0  0  0  0  0  0  0  0  0  0  0  0  0  0  0  0
+          0  0  0  0  0  0  0  0  0  0  0  0  0  0  0  0  0
+          0  0  0  0  0  0  0  0  0  0  0  0  0  0  0  0  0
++         2  2  2  2  2  2  2  2  2  2  2  2  2  2  2  2  2
++         2  2  2  2  2  2  2  2  2  2  2  2  2  2  0  0  0
++         0  0  0  0  0  0  0  0  0  0  0  0  0  0  0  0  0
++         0  0  0  0  0  0  0  0  0  0  0  0  0  0  0  0  0
++         0  0  0  0  0  0  0  0  0  0  0  0  0  0  0  0  0
%c cc cc ccc ccc cccc cccc cccc cccc ccccc ccccc ccccc ccccc
%c cc cc ccc ccc cccc cccc cccc cccc ccccc ccccc ccccc ccccc
%f  0.0000000  0.000000000  0.00000000000  0.000000000000000
%f  0.0000000  0.000000000  0.00000000000  0.000000000000000
%i    0    0    0    0      0      0      0      0         0
%i    0    0    0    0      0      0      0      0         0
/*      NGA, ST. LOUIS,MO.                                  
/*   EPHEMERIS COMPUTED FROM 2 DAYS OF DATA                 
/*   EPOCHA v2.4 SMOOTHER                                   
/*   G1762 IERS2010 SATAF SATAPC                            
*  2016  5 30 17 10  0.00000000
P  1   6522.271617 -18279.592364 -18102.989870     22.040980                    
V  1  20644.228241 -10060.041229  17903.941890      0.012155                    
P  2 -21452.347545  15234.061512   1722.827194    588.669999                    
V  2  -3421.522833  -2200.724421 -31514.665029     -0.024136                    
P  3  -5173.135459 -18078.424134 -18749.385752    -62.727960                    
V  3  21433.791548  10515.148258 -16049.625250     -0.035778                    
P  5 -14614.065205   8707.753188  20378.549122   -116.719748                    
V  5 -22302.269084 -13449.585090 -10015.660806      0.030007                    
P  6 -23166.669874   3617.982123 -12466.728913    197.714692                    
V  6  12515.691334  -9969.760646 -26117.457232      0.054354                    
P  7 -10504.739021 -11357.708441  21762.542129    451.509569                    
V  7  23740.719607 -13374.330645   4108.159057     -0.022848                    
P  8   6422.236116 -23871.104520   9713.431887    -37.119296                    
V  8   2634.689393  12236.134233  28511.812092     -0.014685                    
P  9  -8037.634013 -22825.608450  10909.490085    139.112442                    
V  9   2409.840362 -13927.605580 -27346.132398      0.073128                    
P 10  24227.445724   9952.533918  -4602.377403    -34.429965                    
V 10   3752.709991   5276.241735  30958.673424     -0.086212                    
P 11   7442.507578 -23325.220881 -10808.399466   -648.798196                    
V 11  11269.234015  -7784.313485  25938.196659     -0.013837                    
P 12   1475.686902  16971.078705 -20572.343165    381.295813                    
V 12 -21947.085998 -13348.175284 -12459.631825      0.011523                    
P 13 -12298.507302  17997.728208  15109.306611    -21.391044                    
V 13    298.218958 -19431.337833  23107.111953     -0.025640                    
P 14  14802.236454   3069.972375 -21591.861619    -16.678188                    
V 14  -2091.551020  27930.896154   2350.673476     -0.020618                    
P 15  -3514.782024  25163.723220   6969.154744   -313.156810                    
V 15  -4463.063842  -8860.642991  29567.122920     -0.016392                    
P 16  15414.917114  -6064.870107  20753.544967    -14.098552                    
V 16  21695.882604  15066.554732 -11277.459256      0.025110                    
P 17 -13663.848751  -8795.666077 -20719.821950   -203.924749                    
V 17   1744.007044 -26931.248007   9944.423104     -0.001426                    
P 18  19539.698301  16757.383384   7605.856698    521.206762                    
V 18  -9483.255510  -1162.912990  28760.116223      0.040920                    
P 19 -15183.477881   2941.139880 -21874.251269   -525.633504                    
V 19   2186.045963 -27025.950198  -4847.193144      0.000642                    
P 20   1603.865414  17270.527803  19956.705682    415.426823                    
V 20 -23998.075471  -9603.566509  10206.575417      0.023312                    
P 21  13971.620234   9680.129203  21209.133308   -524.339367                    
V 21 -21091.287133  13947.733238   7566.306447     -0.011676                    
P 22   4855.287198 -15326.920000 -20893.308750    331.087755                    
V 22  24350.002783  12250.564083  -3416.286638     -0.083952                    
P 23  -1637.888746 -26205.952115   1947.111744   -176.023599                    
V 23   3625.835049  -2312.666402 -31590.840950     -0.016220                    
P 24  -9606.135905  19128.575294 -15656.743826    -17.840239                    
V 24 -18117.649993   8512.836343  21788.273674     -0.005327                    
P 25  13740.736359  18405.383787 -13632.247170   -181.058299                    
V 25 -15554.645658  -7023.112803 -25207.807184     -0.070444                    
P 26  22231.932261    766.788810  14544.258725   -380.699914                    
V 26  15100.791972  10819.224545 -23594.246504     -0.118096                    
P 27  12054.735427 -15350.951165  17899.076187     98.103947                    
V 27   1783.448433  22815.041112  18496.735508      0.041294                    
P 28 -22805.613833 -13245.657421  -2690.102052    526.671236                    
V 28  -2395.638561  -3923.238704  32114.070581      0.026680                    
P 29   4459.076051  24825.974130   8397.932002    657.013238                    
V 29  -2588.962396  10509.768165 -29672.527233     -0.002549                    
P 30 -18888.375005  -4929.556341  18045.878331    129.358095                    
V 30  19770.647960 -11718.284744  17383.307655      0.029214                    
P 31  24263.394984  -5746.314396  -9559.451503    266.397461                    
V 31  -9733.374317   7548.881483 -28579.459673     -0.018943                    
P 32  14882.829750   6043.831719 -21144.204499    -14.892656                    
V 32   -320.482457  26878.641232   7439.725188     -0.069834                    
EOF
